STARLINK-31156          
1 58743U 24005R   26068.45950290  .00000176  00000+0  16221-4 0  9993
2 58743  42.9990 220.6172 0001002 291.5066  68.5679 15.26738284120464
HAWK-11B                
1 62379U 24247C   26068.44730104  .00009093  00000+0  32842-3 0  9993
2 62379  45.0161 115.7610 0004690 333.0326  27.0314 15.28847070 67738
